OBJECT_NAME,OBJECT_ID,EPOCH,MEAN_MOTION,ECCENTRICITY,INCLINATION,RA_OF_ASC_NODE,ARG_OF_PERICENTER,MEAN_ANOMALY,EPHEMERIS_TYPE,CLASSIFICATION_TYPE,NORAD_CAT_ID,ELEMENT_SET_NO,REV_AT_EPOCH,BSTAR,MEAN_MOTION_DOT,MEAN_MOTION_DDOT
GSAT-7,2013-044B,2026-06-10T10:58:38.906400,1.00270469,.0003076,0.0660,98.8082,188.9568,209.7036,0,U,39234,999,4519,0,-.59E-6,0
AMOS-4,2013-045A,2026-06-10T10:10:39.425952,1.00271656,.0002531,0.0384,92.1914,325.9796,58.2767,0,U,39237,999,4689,0,.25E-6,0
AEHF-3 (USA 246),2013-050A,2026-06-10T11:18:38.724192,1.00270920,.0087763,5.2779,67.2451,188.0647,48.8929,0,U,39256,999,4558,0,.45E-6,0
ASTRA 2E,2013-056A,2026-06-10T04:52:18.456096,1.00268752,.0002683,0.0645,325.6362,114.9790,279.5418,0,U,39285,999,4634,0,.168E-5,0
FM-6,2013-058A,2026-06-08T15:06:37.024416,1.00255605,.00027713,0.0107,82.6412,69.5183,215.1325,0,U,39360,999,4598,0,.3E-7,0
RADUGA-1M 3,2013-062A,2026-06-10T00:04:38.629632,1.00272613,.0001461,5.9386,72.4431,265.7163,316.3586,0,U,39375,999,4603,0,.169E-5,0
SES-8,2013-071A,2026-06-10T10:19:16.101408,1.00269689,.0002771,0.0292,280.8377,165.9933,61.7772,0,U,39460,999,4436,0,-.252E-5,0
INMARSAT 5-F1,2013-073A,2026-06-09T11:55:26.891328,1.00271530,.00004521,0.0176,8.6429,313.1528,177.5648,0,U,39476,999,4550,0,.45E-6,0
TKSAT-1 (TUPAC KATARI),2013-075A,2026-06-10T07:44:38.485824,1.00271345,.0002379,0.0315,155.1017,274.5067,218.0601,0,U,39481,999,4553,0,-.177E-5,0
EXPRESS-AM5,2013-077A,2026-06-08T19:10:54.873408,1.00272967,.00005105,0.0130,288.2715,83.6383,313.0502,0,U,39487,999,4627,0,-.263E-5,0
GSAT-14,2014-001A,2026-06-10T10:58:38.906400,1.00270739,.0000991,0.0169,28.9290,254.7138,213.8361,0,U,39498,999,4531,0,-.59E-6,0
THAICOM 6,2014-002A,2026-06-09T10:17:22.028352,1.00269478,.00045175,0.0849,104.9062,359.5049,26.2248,0,U,39500,999,4538,0,-.103E-5,0
TDRS 12,2014-004A,2026-06-10T07:57:52.219296,1.00269284,.0002929,3.9701,18.9669,198.2441,120.0440,0,U,39504,999,4420,0,-.255E-5,0
ABS-2,2014-006A,2026-06-10T10:58:38.906400,1.00271205,.0003989,0.0360,80.2166,345.2264,72.9675,0,U,39508,999,4521,0,-.69E-6,0
ATHENA-FIDUS,2014-006B,2026-06-09T04:57:44.737056,1.00270971,.0001428,0.0437,101.5707,352.5836,275.6670,0,U,39509,999,4500,0,.171E-5,0
TURKSAT 4A,2014-007A,2026-06-10T06:38:47.012064,1.00270849,.0001372,0.0499,296.3794,25.9958,77.9518,0,U,39522,999,4489,0,.164E-5,0
EXPRESS-AT1,2014-010A,2026-06-10T11:52:24.482784,1.00302218,.0003875,0.2388,85.7874,37.4520,15.2964,0,U,39612,999,4475,0,.48E-6,0
EXPRESS-AT2,2014-010B,2026-06-10T11:31:38.594784,1.00270811,.0000142,0.0130,293.1938,39.3493,155.2071,0,U,39613,999,4443,0,.96E-6,0
AMAZONAS 4A,2014-011A,2026-06-10T07:48:23.128416,1.00272438,.0003786,0.0641,196.9838,270.3391,194.4683,0,U,39616,999,4464,0,-.235E-5,0
ASTRA 5B,2014-011B,2026-06-10T08:16:05.472192,1.00270662,.0001966,0.0529,322.7323,104.7694,338.7205,0,U,39617,999,4459,0,.154E-5,0
IRNSS-1B,2014-017A,2026-06-09T20:57:27.250848,1.00274052,.00229837,28.9342,240.5292,189.3707,197.7737,0,U,39635,999,4472,0,.122E-5,0
LUCH-5V,2014-023A,2026-06-10T03:28:34.682304,1.00266717,.00027976,5.1149,69.8220,35.5646,299.9192,0,U,39727,999,4428,0,-.251E-5,0
KAZSAT-3,2014-023B,2026-06-10T11:22:38.573184,1.00271009,.0000076,0.0279,53.1017,17.2719,57.6108,0,U,39728,999,4239,0,.78E-6,0
EUTELSAT 3B,2014-030A,2026-06-10T08:09:58.559040,1.00272718,.0003892,0.0612,0.0693,79.7428,304.4970,0,U,39773,999,4399,0,.37E-6,0
ASIASAT 8 (AMOS-7),2014-046A,2026-06-10T10:22:15.814272,1.00270037,.0001385,0.0187,328.2364,114.0559,77.3898,0,U,40107,999,10208,0,-.315E-5,0
ASIASAT 6,2014-052A,2026-06-10T10:26:22.919136,1.00268024,.0000653,0.0211,1.4968,104.2863,69.5161,0,U,40141,999,4301,0,0,0
OPTUS 10,2014-054A,2026-06-10T05:08:38.958720,1.00271517,.0002034,0.0944,313.3059,122.6678,55.7612,0,U,40146,999,4296,0,-.13E-5,0
MEASAT-3B,2014-054B,2026-06-10T10:18:16.195968,1.00271956,.0003137,0.0506,50.2171,19.6425,74.9961,0,U,40147,999,4284,0,-.224E-5,0
HIMAWARI-8,2014-060A,2026-06-10T08:49:39.171072,1.00270252,.000078,0.0119,306.7201,160.0550,65.0330,0,U,40267,999,4269,0,-.258E-5,0
IRNSS-1C,2014-061A,2026-06-10T08:33:10.750752,1.00270410,.0022669,6.5011,89.0585,1.6512,19.3150,0,U,40269,999,4262,0,-.145E-5,0
INTELSAT 30 (IS-30),2014-062A,2026-06-10T00:51:42.732864,1.00267059,.00008212,0.0228,41.0330,352.5032,142.6782,0,U,40271,999,672,0,-.132E-5,0
ARSAT 1,2014-062B,2026-06-10T07:49:00.568128,1.00269469,.0001678,0.0154,12.2199,65.3390,226.5691,0,U,40272,999,4255,0,-.242E-5,0
