GSAT-7                  
1 39234U 13044B   26161.45739475 -.00000059  00000+0  00000+0 0  9996
2 39234   0.0660  98.8082 0003076 188.9568 209.7036  1.00270469 45196
AMOS-4                  
1 39237U 13045A   26161.42406743  .00000025  00000+0  00000+0 0  9998
2 39237   0.0384  92.1914 0002531 325.9796  58.2767  1.00271656 46899
AEHF-3 (USA 246)        
1 39256U 13050A   26161.47128153  .00000045  00000+0  00000+0 0  9998
2 39256   5.2779  67.2451 0087763 188.0647  48.8929  1.00270920 45580
ASTRA 2E                
1 39285U 13056A   26161.20299139  .00000168  00000+0  00000+0 0  9996
2 39285   0.0645 325.6362 0002683 114.9790 279.5418  1.00268752 46345
FM-6                    
1 39360U 13058A   26159.62959519  .00000003  00000+0  00000+0 0  9998
2 39360   0.0107  82.6412 0002771  69.5183 215.1325  1.00255605 45982
RADUGA-1M 3             
1 39375U 13062A   26161.00322488  .00000169  00000+0  00000+0 0  9996
2 39375   5.9386  72.4431 0001461 265.7163 316.3586  1.00272613 46030
SES-8                   
1 39460U 13071A   26161.43004747 -.00000252  00000+0  00000+0 0  9997
2 39460   0.0292 280.8377 0002771 165.9933  61.7772  1.00269689 44363
INMARSAT 5-F1           
1 39476U 13073A   26160.49683902  .00000045  00000+0  00000+0 0  9996
2 39476   0.0176   8.6429 0000452 313.1528 177.5648  1.00271530 45509
TKSAT-1 (TUPAC KATARI)  
1 39481U 13075A   26161.32266766 -.00000177  00000+0  00000+0 0  9999
2 39481   0.0315 155.1017 0002379 274.5067 218.0601  1.00271345 45536
EXPRESS-AM5             
1 39487U 13077A   26159.79924622 -.00000263  00000+0  00000+0 0  9993
2 39487   0.0130 288.2715 0000510  83.6383 313.0502  1.00272967 46274
GSAT-14                 
1 39498U 14001A   26161.45739475 -.00000059  00000+0  00000+0 0  9992
2 39498   0.0169  28.9290 0000991 254.7138 213.8361  1.00270739 45316
THAICOM 6               
1 39500U 14002A   26160.42872718 -.00000103  00000+0  00000+0 0  9991
2 39500   0.0849 104.9062 0004517 359.5049  26.2248  1.00269478 45385
TDRS 12                 
1 39504U 14004A   26161.33185439 -.00000255  00000+0  00000+0 0  9993
2 39504   3.9701  18.9669 0002929 198.2441 120.0440  1.00269284 44206
ABS-2                   
1 39508U 14006A   26161.45739475 -.00000069  00000+0  00000+0 0  9990
2 39508   0.0360  80.2166 0003989 345.2264  72.9675  1.00271205 45210
ATHENA-FIDUS            
1 39509U 14006B   26160.20676779  .00000171  00000+0  00000+0 0  9993
2 39509   0.0437 101.5707 0001428 352.5836 275.6670  1.00270971 45009
TURKSAT 4A              
1 39522U 14007A   26161.27693301  .00000164  00000+0  00000+0 0  9999
2 39522   0.0499 296.3794 0001372  25.9958  77.9518  1.00270849 44899
EXPRESS-AT1             
1 39612U 14010A   26161.49472781  .00000048  00000+0  00000+0 0  9995
2 39612   0.2388  85.7874 0003875  37.4520  15.2964  1.00302218 44751
EXPRESS-AT2             
1 39613U 14010B   26161.48030781  .00000096  00000+0  00000+0 0  9998
2 39613   0.0130 293.1938 0000142  39.3493 155.2071  1.00270811 44437
AMAZONAS 4A             
1 39616U 14011A   26161.32526769 -.00000235  00000+0  00000+0 0  9997
2 39616   0.0641 196.9838 0003786 270.3391 194.4683  1.00272438 44641
ASTRA 5B                
1 39617U 14011B   26161.34450778  .00000154  00000+0  00000+0 0  9995
2 39617   0.0529 322.7323 0001966 104.7694 338.7205  1.00270662 44593
IRNSS-1B                
1 39635U 14017A   26160.87323207  .00000122  00000+0  00000+0 0  9999
2 39635  28.9342 240.5292 0022983 189.3707 197.7737  1.00274052 44728
LUCH-5V                 
1 39727U 14023A   26161.14484586 -.00000251  00000+0  00000+0 0  9991
2 39727   5.1149  69.8220 0002797  35.5646 299.9192  1.00266717 44280
KAZSAT-3                
1 39728U 14023B   26161.47405756  .00000078  00000+0  00000+0 0  9996
2 39728   0.0279  53.1017 0000076  17.2719  57.6108  1.00271009 42391
EUTELSAT 3B             
1 39773U 14030A   26161.34026110  .00000037  00000+0  00000+0 0  9998
2 39773   0.0612   0.0693 0003892  79.7428 304.4970  1.00272718 43997
ASIASAT 8 (AMOS-7)      
1 40107U 14046A   26161.43212748 -.00000315  00000+0  00000+0 0  9992
2 40107   0.0187 328.2364 0001385 114.0559  77.3898  1.00270037102083
ASIASAT 6               
1 40141U 14052A   26161.43498749  .00000000  00000+0  00000+0 0  9994
2 40141   0.0211   1.4968 0000653 104.2863  69.5161  1.00268024 43011
OPTUS 10                
1 40146U 14054A   26161.21433980 -.00000130  00000+0  00000+0 0  9998
2 40146   0.0944 313.3059 0002034 122.6678  55.7612  1.00271517 42960
MEASAT-3B               
1 40147U 14054B   26161.42935412 -.00000224  00000+0  00000+0 0  9993
2 40147   0.0506  50.2171 0003137  19.6425  74.9961  1.00271956 42841
HIMAWARI-8              
1 40267U 14060A   26161.36781448 -.00000258  00000+0  00000+0 0  9991
2 40267   0.0119 306.7201 0000780 160.0550  65.0330  1.00270252 42690
IRNSS-1C                
1 40269U 14061A   26161.35637443 -.00000145  00000+0  00000+0 0  9993
2 40269   6.5011  89.0585 0022669   1.6512  19.3150  1.00270410 42629
INTELSAT 30 (IS-30)     
1 40271U 14062A   26161.03591126 -.00000132  00000+0  00000+0 0  9995
2 40271   0.0228  41.0330 0000821 352.5032 142.6782  1.00267059  6725
ARSAT 1                 
1 40272U 14062B   26161.32570102 -.00000242  00000+0  00000+0 0  9991
2 40272   0.0154  12.2199 0001678  65.3390 226.5691  1.00269469 42553
